<?xml version="1.0" encoding="UTF-8"?>
<gpx xmlns="http://www.topografix.com/GPX/1/1" version="1.1" creator="baikal50.cn">
  <metadata>
    <name>贝加尔湖50径 · 利斯特扬卡—大戈洛 (ББТ) 完整轨迹</name>
    <link href="https://baikal50.cn/"><text>贝加尔湖50径 baikal50.cn</text></link>
    <time>2025-07-01T00:00:00Z</time>
  </metadata>
  <wpt lat="51.918567" lon="105.222450"><name>Кадилинские известняки</name></wpt>
  <wpt lat="51.855586" lon="104.889445"><name>Начало маршрута</name></wpt>
  <wpt lat="52.010845" lon="105.362422"><name>Окончание маршрута</name></wpt>
  <wpt lat="51.899033" lon="105.138800"><name>Скала Медвежья Лапа</name></wpt>
  <wpt lat="51.910367" lon="105.072800"><name>Старый золотоносный прииск на р. Большие Коты</name></wpt>
  <wpt lat="51.929711" lon="105.251284"><name>стоянка - Вблизи м.Большой Кадильный вторая площадка</name></wpt>
  <wpt lat="51.917477" lon="105.221713"><name>стоянка - Вблизи м.Большой Кадильный первая площадка (2 ночёвка)</name></wpt>
  <wpt lat="51.935740" lon="105.257108"><name>стоянка - Вблизи м.Большой Кадильный третья площадка</name></wpt>
  <wpt lat="51.899265" lon="105.151308"><name>стоянка - Вблизи мыса Соболев</name></wpt>
  <wpt lat="51.899357" lon="105.113162"><name>стоянка - Падь Б. и М. Сенная</name></wpt>
  <wpt lat="51.905520" lon="105.096082"><name>стоянка - Падь Варначья</name></wpt>
  <wpt lat="51.860242" lon="104.940165"><name>стоянка - Падь Емельяниха</name></wpt>
  <wpt lat="51.870796" lon="104.988399"><name>стоянка - Падь Средняя, вторая площадка</name></wpt>
  <wpt lat="51.870462" lon="104.983412"><name>стоянка - Падь Средняя, первая площадка</name></wpt>
  <wpt lat="51.888985" lon="105.037711"><name>стоянка - Падь Черная (1 ночёвка)</name></wpt>
  <wpt lat="51.865019" lon="104.961097"><name>стоянка - Р. Смородовка, вторая площадка в глубине берега</name></wpt>
  <wpt lat="51.864494" lon="104.959879"><name>стоянка - Р. Смородовка, первая площадка на пляже</name></wpt>
  <wpt lat="51.874884" lon="105.003041"><name>стоянка - Урочище Медвежье вторая площадка (падь Средняя)</name></wpt>
  <wpt lat="51.873703" lon="104.998477"><name>стоянка - Урочище Медвежье первая площадка (падь Тетериха)</name></wpt>
  <wpt lat="52.007665" lon="105.353815"><name>стоянка - Урочище Семеновка</name></wpt>
  <wpt lat="51.882100" lon="105.020306"><name>стоянка - Урочище Солонцовая</name></wpt>
  <wpt lat="51.986943" lon="105.312813"><name>стоянка - Ушканья падь</name></wpt>
  <wpt lat="51.905877" lon="105.167440"><name>Утёс Чаячий</name></wpt>
  <wpt lat="51.899817" lon="105.130680"><name>Утес Скрипер</name></wpt>
  <trk>
    <name>贝加尔湖50径 · 利斯特扬卡—大戈洛 (ББТ) 完整轨迹</name>
    <trkseg>
      <trkpt lat="51.856402" lon="104.890849"/>
      <trkpt lat="51.856470" lon="104.890905"/>
      <trkpt lat="51.856620" lon="104.891033"/>
      <trkpt lat="51.857203" lon="104.891677"/>
      <trkpt lat="51.857601" lon="104.892428"/>
      <trkpt lat="51.857958" lon="104.893050"/>
      <trkpt lat="51.858197" lon="104.893501"/>
      <trkpt lat="51.858290" lon="104.893952"/>
      <trkpt lat="51.858475" lon="104.894059"/>
      <trkpt lat="51.858648" lon="104.894102"/>
      <trkpt lat="51.858807" lon="104.894359"/>
      <trkpt lat="51.859217" lon="104.894767"/>
      <trkpt lat="51.859628" lon="104.895196"/>
      <trkpt lat="51.860079" lon="104.895754"/>
      <trkpt lat="51.860463" lon="104.896226"/>
      <trkpt lat="51.860980" lon="104.896870"/>
      <trkpt lat="51.861510" lon="104.897363"/>
      <trkpt lat="51.861908" lon="104.897664"/>
      <trkpt lat="51.862226" lon="104.897943"/>
      <trkpt lat="51.862398" lon="104.898114"/>
      <trkpt lat="51.862822" lon="104.898715"/>
      <trkpt lat="51.863180" lon="104.899230"/>
      <trkpt lat="51.863458" lon="104.899895"/>
      <trkpt lat="51.863789" lon="104.900560"/>
      <trkpt lat="51.863961" lon="104.900968"/>
      <trkpt lat="51.864147" lon="104.901526"/>
      <trkpt lat="51.864359" lon="104.902363"/>
      <trkpt lat="51.864571" lon="104.903307"/>
      <trkpt lat="51.864690" lon="104.903886"/>
      <trkpt lat="51.864730" lon="104.904423"/>
      <trkpt lat="51.864777" lon="104.904915"/>
      <trkpt lat="51.864896" lon="104.905409"/>
      <trkpt lat="51.865028" lon="104.905945"/>
      <trkpt lat="51.865081" lon="104.906256"/>
      <trkpt lat="51.865068" lon="104.906900"/>
      <trkpt lat="51.865081" lon="104.907383"/>
      <trkpt lat="51.865081" lon="104.907876"/>
      <trkpt lat="51.865128" lon="104.908252"/>
      <trkpt lat="51.865187" lon="104.908617"/>
      <trkpt lat="51.865346" lon="104.909217"/>
      <trkpt lat="51.865499" lon="104.909883"/>
      <trkpt lat="51.865591" lon="104.910086"/>
      <trkpt lat="51.866068" lon="104.910977"/>
      <trkpt lat="51.866459" lon="104.911717"/>
      <trkpt lat="51.866797" lon="104.912425"/>
      <trkpt lat="51.867022" lon="104.912876"/>
      <trkpt lat="51.867162" lon="104.913123"/>
      <trkpt lat="51.867268" lon="104.913348"/>
      <trkpt lat="51.867327" lon="104.913541"/>
      <trkpt lat="51.867446" lon="104.913981"/>
      <trkpt lat="51.867513" lon="104.914271"/>
      <trkpt lat="51.867539" lon="104.914528"/>
      <trkpt lat="51.867599" lon="104.914925"/>
      <trkpt lat="51.867619" lon="104.915354"/>
      <trkpt lat="51.867632" lon="104.915751"/>
      <trkpt lat="51.867619" lon="104.916148"/>
      <trkpt lat="51.867632" lon="104.916427"/>
      <trkpt lat="51.867652" lon="104.916599"/>
      <trkpt lat="51.867711" lon="104.916931"/>
      <trkpt lat="51.867804" lon="104.917393"/>
      <trkpt lat="51.868010" lon="104.917715"/>
      <trkpt lat="51.868294" lon="104.918176"/>
      <trkpt lat="51.868586" lon="104.918627"/>
      <trkpt lat="51.868811" lon="104.918916"/>
      <trkpt lat="51.869083" lon="104.919238"/>
      <trkpt lat="51.869109" lon="104.920214"/>
      <trkpt lat="51.869129" lon="104.920429"/>
      <trkpt lat="51.869259" lon="104.920577"/>
      <trkpt lat="51.869379" lon="104.920663"/>
      <trkpt lat="51.869524" lon="104.920631"/>
      <trkpt lat="51.869663" lon="104.920749"/>
      <trkpt lat="51.869802" lon="104.920931"/>
      <trkpt lat="51.869942" lon="104.921156"/>
      <trkpt lat="51.870114" lon="104.921414"/>
      <trkpt lat="51.870313" lon="104.921607"/>
      <trkpt lat="51.870419" lon="104.921725"/>
      <trkpt lat="51.870518" lon="104.922208"/>
      <trkpt lat="51.870617" lon="104.922766"/>
      <trkpt lat="51.870743" lon="104.923195"/>
      <trkpt lat="51.870869" lon="104.923624"/>
      <trkpt lat="51.870068" lon="104.927132"/>
      <trkpt lat="51.870419" lon="104.926757"/>
      <trkpt lat="51.870458" lon="104.927948"/>
      <trkpt lat="51.870332" lon="104.928291"/>
      <trkpt lat="51.870054" lon="104.928291"/>
      <trkpt lat="51.869802" lon="104.928431"/>
      <trkpt lat="51.870538" lon="104.928752"/>
      <trkpt lat="51.869339" lon="104.929343"/>
      <trkpt lat="51.870120" lon="104.929557"/>
      <trkpt lat="51.870670" lon="104.930029"/>
      <trkpt lat="51.870385" lon="104.929976"/>
      <trkpt lat="51.869584" lon="104.930233"/>
      <trkpt lat="51.870511" lon="104.930877"/>
      <trkpt lat="51.870723" lon="104.931349"/>
      <trkpt lat="51.871200" lon="104.931649"/>
      <trkpt lat="51.870644" lon="104.931671"/>
      <trkpt lat="51.870472" lon="104.931488"/>
      <trkpt lat="51.870061" lon="104.931445"/>
      <trkpt lat="51.870544" lon="104.932250"/>
      <trkpt lat="51.870803" lon="104.932465"/>
      <trkpt lat="51.871690" lon="104.932915"/>
      <trkpt lat="51.870876" lon="104.932947"/>
      <trkpt lat="51.870399" lon="104.933060"/>
      <trkpt lat="51.871270" lon="104.933688"/>
      <trkpt lat="51.870472" lon="104.933859"/>
      <trkpt lat="51.870101" lon="104.933859"/>
      <trkpt lat="51.869595" lon="104.934526"/>
      <trkpt lat="51.869403" lon="104.934912"/>
      <trkpt lat="51.869085" lon="104.935277"/>
      <trkpt lat="51.868847" lon="104.935641"/>
      <trkpt lat="51.868555" lon="104.936156"/>
      <trkpt lat="51.866687" lon="104.937154"/>
      <trkpt lat="51.866183" lon="104.937315"/>
      <trkpt lat="51.865998" lon="104.937261"/>
      <trkpt lat="51.865528" lon="104.937058"/>
      <trkpt lat="51.865137" lon="104.936993"/>
      <trkpt lat="51.864812" lon="104.936993"/>
      <trkpt lat="51.864706" lon="104.936972"/>
      <trkpt lat="51.864156" lon="104.937154"/>
      <trkpt lat="51.863977" lon="104.937294"/>
      <trkpt lat="51.863745" lon="104.937337"/>
      <trkpt lat="51.863454" lon="104.937379"/>
      <trkpt lat="51.863288" lon="104.937455"/>
      <trkpt lat="51.863003" lon="104.937691"/>
      <trkpt lat="51.862818" lon="104.937798"/>
      <trkpt lat="51.862679" lon="104.937819"/>
      <trkpt lat="51.862427" lon="104.937948"/>
      <trkpt lat="51.862188" lon="104.938055"/>
      <trkpt lat="51.861960" lon="104.938387"/>
      <trkpt lat="51.861708" lon="104.938601"/>
      <trkpt lat="51.861404" lon="104.938795"/>
      <trkpt lat="51.861139" lon="104.938923"/>
      <trkpt lat="51.860867" lon="104.939020"/>
      <trkpt lat="51.860688" lon="104.939106"/>
      <trkpt lat="51.860489" lon="104.939288"/>
      <trkpt lat="51.860327" lon="104.939487"/>
      <trkpt lat="51.860221" lon="104.939690"/>
      <trkpt lat="51.860181" lon="104.939766"/>
      <trkpt lat="51.860181" lon="104.939937"/>
      <trkpt lat="51.860247" lon="104.940034"/>
      <trkpt lat="51.860536" lon="104.939766"/>
      <trkpt lat="51.860748" lon="104.939605"/>
      <trkpt lat="51.860820" lon="104.939556"/>
      <trkpt lat="51.860950" lon="104.939519"/>
      <trkpt lat="51.861248" lon="104.939369"/>
      <trkpt lat="51.861377" lon="104.939315"/>
      <trkpt lat="51.861513" lon="104.939299"/>
      <trkpt lat="51.861702" lon="104.939251"/>
      <trkpt lat="51.861821" lon="104.939192"/>
      <trkpt lat="51.861920" lon="104.939154"/>
      <trkpt lat="51.861973" lon="104.939149"/>
      <trkpt lat="51.862003" lon="104.939165"/>
      <trkpt lat="51.862000" lon="104.939208"/>
      <trkpt lat="51.861917" lon="104.939353"/>
      <trkpt lat="51.861748" lon="104.939567"/>
      <trkpt lat="51.861632" lon="104.939685"/>
      <trkpt lat="51.861506" lon="104.939776"/>
      <trkpt lat="51.861433" lon="104.939905"/>
      <trkpt lat="51.861407" lon="104.940050"/>
      <trkpt lat="51.861400" lon="104.940222"/>
      <trkpt lat="51.861430" lon="104.940297"/>
      <trkpt lat="51.861513" lon="104.940393"/>
      <trkpt lat="51.861592" lon="104.940581"/>
      <trkpt lat="51.861639" lon="104.940704"/>
      <trkpt lat="51.861685" lon="104.940790"/>
      <trkpt lat="51.861781" lon="104.940876"/>
      <trkpt lat="51.861920" lon="104.940989"/>
      <trkpt lat="51.861976" lon="104.941086"/>
      <trkpt lat="51.862483" lon="104.942411"/>
      <trkpt lat="51.862533" lon="104.942508"/>
      <trkpt lat="51.862602" lon="104.942562"/>
      <trkpt lat="51.862854" lon="104.942599"/>
      <trkpt lat="51.862940" lon="104.942642"/>
      <trkpt lat="51.863010" lon="104.942706"/>
      <trkpt lat="51.863089" lon="104.942889"/>
      <trkpt lat="51.863222" lon="104.942953"/>
      <trkpt lat="51.863367" lon="104.942996"/>
      <trkpt lat="51.863513" lon="104.943012"/>
      <trkpt lat="51.863573" lon="104.943093"/>
      <trkpt lat="51.863632" lon="104.943157"/>
      <trkpt lat="51.863712" lon="104.943280"/>
      <trkpt lat="51.863791" lon="104.943425"/>
      <trkpt lat="51.863904" lon="104.943570"/>
      <trkpt lat="51.864040" lon="104.943769"/>
      <trkpt lat="51.864176" lon="104.943876"/>
      <trkpt lat="51.864325" lon="104.943962"/>
      <trkpt lat="51.864461" lon="104.943999"/>
      <trkpt lat="51.864586" lon="104.944026"/>
      <trkpt lat="51.864719" lon="104.944305"/>
      <trkpt lat="51.864729" lon="104.944520"/>
      <trkpt lat="51.864749" lon="104.944675"/>
      <trkpt lat="51.864800" lon="104.944919"/>
      <trkpt lat="51.864832" lon="104.945145"/>
      <trkpt lat="51.864866" lon="104.945257"/>
      <trkpt lat="51.864914" lon="104.945362"/>
      <trkpt lat="51.864964" lon="104.945437"/>
      <trkpt lat="51.865057" lon="104.945863"/>
      <trkpt lat="51.864996" lon="104.945930"/>
      <trkpt lat="51.864841" lon="104.945711"/>
      <trkpt lat="51.864865" lon="104.945834"/>
      <trkpt lat="51.864913" lon="104.946354"/>
      <trkpt lat="51.864923" lon="104.946502"/>
      <trkpt lat="51.864938" lon="104.946909"/>
      <trkpt lat="51.864967" lon="104.946947"/>
      <trkpt lat="51.865083" lon="104.947078"/>
      <trkpt lat="51.865247" lon="104.947457"/>
      <trkpt lat="51.865264" lon="104.947658"/>
      <trkpt lat="51.864891" lon="104.947953"/>
      <trkpt lat="51.864678" lon="104.948181"/>
      <trkpt lat="51.864634" lon="104.948468"/>
      <trkpt lat="51.864627" lon="104.948665"/>
      <trkpt lat="51.864488" lon="104.949611"/>
      <trkpt lat="51.864411" lon="104.949946"/>
      <trkpt lat="51.864280" lon="104.950127"/>
      <trkpt lat="51.864159" lon="104.950178"/>
      <trkpt lat="51.864093" lon="104.950349"/>
      <trkpt lat="51.864016" lon="104.950596"/>
      <trkpt lat="51.863901" lon="104.950831"/>
      <trkpt lat="51.863780" lon="104.950985"/>
      <trkpt lat="51.863817" lon="104.951333"/>
      <trkpt lat="51.863898" lon="104.952021"/>
      <trkpt lat="51.863921" lon="104.952435"/>
      <trkpt lat="51.863872" lon="104.953005"/>
      <trkpt lat="51.863824" lon="104.953458"/>
      <trkpt lat="51.863808" lon="104.953771"/>
      <trkpt lat="51.863908" lon="104.953937"/>
      <trkpt lat="51.864107" lon="104.954815"/>
      <trkpt lat="51.864309" lon="104.955171"/>
      <trkpt lat="51.864475" lon="104.955632"/>
      <trkpt lat="51.864572" lon="104.956331"/>
      <trkpt lat="51.864567" lon="104.956772"/>
      <trkpt lat="51.864660" lon="104.957185"/>
      <trkpt lat="51.864658" lon="104.957400"/>
      <trkpt lat="51.864605" lon="104.957569"/>
      <trkpt lat="51.864593" lon="104.957734"/>
      <trkpt lat="51.864654" lon="104.957962"/>
      <trkpt lat="51.864657" lon="104.958406"/>
      <trkpt lat="51.864585" lon="104.959135"/>
      <trkpt lat="51.864602" lon="104.960035"/>
      <trkpt lat="51.864961" lon="104.960435"/>
      <trkpt lat="51.865035" lon="104.960639"/>
      <trkpt lat="51.865032" lon="104.960773"/>
      <trkpt lat="51.864997" lon="104.960840"/>
      <trkpt lat="51.865088" lon="104.961390"/>
      <trkpt lat="51.865299" lon="104.961664"/>
      <trkpt lat="51.865425" lon="104.961991"/>
      <trkpt lat="51.865729" lon="104.962643"/>
      <trkpt lat="51.865749" lon="104.963201"/>
      <trkpt lat="51.865915" lon="104.963683"/>
      <trkpt lat="51.866266" lon="104.964555"/>
      <trkpt lat="51.866476" lon="104.964842"/>
      <trkpt lat="51.866606" lon="104.965199"/>
      <trkpt lat="51.866657" lon="104.965499"/>
      <trkpt lat="51.866859" lon="104.965861"/>
      <trkpt lat="51.866948" lon="104.966175"/>
      <trkpt lat="51.867250" lon="104.966513"/>
      <trkpt lat="51.867478" lon="104.966898"/>
      <trkpt lat="51.867653" lon="104.967284"/>
      <trkpt lat="51.867995" lon="104.967783"/>
      <trkpt lat="51.868010" lon="104.967928"/>
      <trkpt lat="51.868242" lon="104.968212"/>
      <trkpt lat="51.868390" lon="104.968614"/>
      <trkpt lat="51.868535" lon="104.968877"/>
      <trkpt lat="51.868539" lon="104.969113"/>
      <trkpt lat="51.868734" lon="104.969494"/>
      <trkpt lat="51.868797" lon="104.969738"/>
      <trkpt lat="51.868920" lon="104.969942"/>
      <trkpt lat="51.868991" lon="104.970098"/>
      <trkpt lat="51.869120" lon="104.970248"/>
      <trkpt lat="51.869198" lon="104.970484"/>
      <trkpt lat="51.869372" lon="104.970642"/>
      <trkpt lat="51.869440" lon="104.971007"/>
      <trkpt lat="51.869392" lon="104.971176"/>
      <trkpt lat="51.869455" lon="104.971340"/>
      <trkpt lat="51.869466" lon="104.971468"/>
      <trkpt lat="51.869582" lon="104.971592"/>
      <trkpt lat="51.869628" lon="104.971838"/>
      <trkpt lat="51.869807" lon="104.972233"/>
      <trkpt lat="51.869848" lon="104.972348"/>
      <trkpt lat="51.870065" lon="104.972520"/>
      <trkpt lat="51.870108" lon="104.972640"/>
      <trkpt lat="51.869881" lon="104.972686"/>
      <trkpt lat="51.869853" lon="104.972831"/>
      <trkpt lat="51.869915" lon="104.973072"/>
      <trkpt lat="51.869896" lon="104.973469"/>
      <trkpt lat="51.870016" lon="104.974089"/>
      <trkpt lat="51.870011" lon="104.974773"/>
      <trkpt lat="51.870019" lon="104.974901"/>
      <trkpt lat="51.870054" lon="104.975172"/>
      <trkpt lat="51.870175" lon="104.975510"/>
      <trkpt lat="51.870204" lon="104.975854"/>
      <trkpt lat="51.870362" lon="104.976411"/>
      <trkpt lat="51.870663" lon="104.977900"/>
      <trkpt lat="51.870684" lon="104.978143"/>
      <trkpt lat="51.870778" lon="104.978481"/>
      <trkpt lat="51.871075" lon="104.980096"/>
      <trkpt lat="51.870903" lon="104.980262"/>
      <trkpt lat="51.870882" lon="104.980377"/>
      <trkpt lat="51.870878" lon="104.980488"/>
      <trkpt lat="51.870737" lon="104.981218"/>
      <trkpt lat="51.870717" lon="104.981281"/>
      <trkpt lat="51.870714" lon="104.981297"/>
      <trkpt lat="51.870631" lon="104.981549"/>
      <trkpt lat="51.870469" lon="104.982351"/>
      <trkpt lat="51.870311" lon="104.982971"/>
      <trkpt lat="51.870391" lon="104.983148"/>
      <trkpt lat="51.870303" lon="104.983161"/>
      <trkpt lat="51.870306" lon="104.983494"/>
      <trkpt lat="51.870373" lon="104.983735"/>
      <trkpt lat="51.870401" lon="104.983904"/>
      <trkpt lat="51.870440" lon="104.984392"/>
      <trkpt lat="51.870637" lon="104.984827"/>
      <trkpt lat="51.870839" lon="104.985973"/>
      <trkpt lat="51.870902" lon="104.986434"/>
      <trkpt lat="51.870915" lon="104.986571"/>
      <trkpt lat="51.870930" lon="104.986930"/>
      <trkpt lat="51.870980" lon="104.987518"/>
      <trkpt lat="51.870989" lon="104.987569"/>
      <trkpt lat="51.870943" lon="104.987762"/>
      <trkpt lat="51.871001" lon="104.988135"/>
      <trkpt lat="51.870960" lon="104.988435"/>
      <trkpt lat="51.871053" lon="104.988777"/>
      <trkpt lat="51.871060" lon="104.988973"/>
      <trkpt lat="51.871116" lon="104.989107"/>
      <trkpt lat="51.871134" lon="104.989249"/>
      <trkpt lat="51.871159" lon="104.989418"/>
      <trkpt lat="51.871200" lon="104.989566"/>
      <trkpt lat="51.871275" lon="104.989756"/>
      <trkpt lat="51.871358" lon="104.989955"/>
      <trkpt lat="51.871562" lon="104.990236"/>
      <trkpt lat="51.871727" lon="104.990579"/>
      <trkpt lat="51.871932" lon="104.990794"/>
      <trkpt lat="51.872078" lon="104.990901"/>
      <trkpt lat="51.872204" lon="104.990901"/>
      <trkpt lat="51.872264" lon="104.990976"/>
      <trkpt lat="51.872264" lon="104.991191"/>
      <trkpt lat="51.872264" lon="104.991470"/>
      <trkpt lat="51.872151" lon="104.991878"/>
      <trkpt lat="51.872197" lon="104.992071"/>
      <trkpt lat="51.872277" lon="104.992242"/>
      <trkpt lat="51.872277" lon="104.992521"/>
      <trkpt lat="51.872376" lon="104.992886"/>
      <trkpt lat="51.872476" lon="104.993111"/>
      <trkpt lat="51.872542" lon="104.993305"/>
      <trkpt lat="51.872588" lon="104.993476"/>
      <trkpt lat="51.872655" lon="104.993669"/>
      <trkpt lat="51.872727" lon="104.993841"/>
      <trkpt lat="51.872992" lon="104.994506"/>
      <trkpt lat="51.873330" lon="104.995032"/>
      <trkpt lat="51.873516" lon="104.995429"/>
      <trkpt lat="51.873655" lon="104.996105"/>
      <trkpt lat="51.873774" lon="104.996652"/>
      <trkpt lat="51.873781" lon="104.996856"/>
      <trkpt lat="51.873946" lon="104.997585"/>
      <trkpt lat="51.873920" lon="104.997897"/>
      <trkpt lat="51.873953" lon="104.998143"/>
      <trkpt lat="51.873887" lon="104.998513"/>
      <trkpt lat="51.873850" lon="104.998819"/>
      <trkpt lat="51.873880" lon="104.999146"/>
      <trkpt lat="51.873913" lon="104.999495"/>
      <trkpt lat="51.873940" lon="104.999924"/>
      <trkpt lat="51.874036" lon="105.000386"/>
      <trkpt lat="51.874148" lon="105.000938"/>
      <trkpt lat="51.874248" lon="105.001147"/>
      <trkpt lat="51.874354" lon="105.001319"/>
      <trkpt lat="51.874370" lon="105.001539"/>
      <trkpt lat="51.874337" lon="105.001917"/>
      <trkpt lat="51.874354" lon="105.002091"/>
      <trkpt lat="51.874486" lon="105.002328"/>
      <trkpt lat="51.874557" lon="105.002695"/>
      <trkpt lat="51.874652" lon="105.002892"/>
      <trkpt lat="51.874709" lon="105.002946"/>
      <trkpt lat="51.874798" lon="105.002989"/>
      <trkpt lat="51.874904" lon="105.003096"/>
      <trkpt lat="51.875023" lon="105.003214"/>
      <trkpt lat="51.875149" lon="105.003327"/>
      <trkpt lat="51.875613" lon="105.003815"/>
      <trkpt lat="51.875815" lon="105.004115"/>
      <trkpt lat="51.876126" lon="105.004614"/>
      <trkpt lat="51.876351" lon="105.005001"/>
      <trkpt lat="51.876878" lon="105.005569"/>
      <trkpt lat="51.877368" lon="105.006304"/>
      <trkpt lat="51.877765" lon="105.006974"/>
      <trkpt lat="51.878143" lon="105.007751"/>
      <trkpt lat="51.878258" lon="105.007864"/>
      <trkpt lat="51.878454" lon="105.008003"/>
      <trkpt lat="51.878590" lon="105.008159"/>
      <trkpt lat="51.878669" lon="105.008320"/>
      <trkpt lat="51.878739" lon="105.008556"/>
      <trkpt lat="51.878749" lon="105.008765"/>
      <trkpt lat="51.878768" lon="105.008953"/>
      <trkpt lat="51.878818" lon="105.009125"/>
      <trkpt lat="51.878818" lon="105.009216"/>
      <trkpt lat="51.878788" lon="105.009291"/>
      <trkpt lat="51.878831" lon="105.009441"/>
      <trkpt lat="51.878888" lon="105.009613"/>
      <trkpt lat="51.878927" lon="105.009768"/>
      <trkpt lat="51.878987" lon="105.009999"/>
      <trkpt lat="51.879070" lon="105.010251"/>
      <trkpt lat="51.879100" lon="105.010358"/>
      <trkpt lat="51.879106" lon="105.010525"/>
      <trkpt lat="51.879321" lon="105.010954"/>
      <trkpt lat="51.879504" lon="105.011313"/>
      <trkpt lat="51.879520" lon="105.011447"/>
      <trkpt lat="51.879620" lon="105.011683"/>
      <trkpt lat="51.880129" lon="105.012075"/>
      <trkpt lat="51.880219" lon="105.012222"/>
      <trkpt lat="51.880272" lon="105.012383"/>
      <trkpt lat="51.880222" lon="105.012737"/>
      <trkpt lat="51.880291" lon="105.012978"/>
      <trkpt lat="51.880311" lon="105.013198"/>
      <trkpt lat="51.880295" lon="105.013563"/>
      <trkpt lat="51.880695" lon="105.014062"/>
      <trkpt lat="51.880709" lon="105.014341"/>
      <trkpt lat="51.880748" lon="105.014609"/>
      <trkpt lat="51.880656" lon="105.014925"/>
      <trkpt lat="51.880831" lon="105.015414"/>
      <trkpt lat="51.880894" lon="105.015435"/>
      <trkpt lat="51.880990" lon="105.015730"/>
      <trkpt lat="51.881036" lon="105.016057"/>
      <trkpt lat="51.880894" lon="105.017227"/>
      <trkpt lat="51.880825" lon="105.017474"/>
      <trkpt lat="51.880960" lon="105.017883"/>
      <trkpt lat="51.880983" lon="105.018189"/>
      <trkpt lat="51.881205" lon="105.018663"/>
      <trkpt lat="51.881210" lon="105.018830"/>
      <trkpt lat="51.881372" lon="105.019219"/>
      <trkpt lat="51.881594" lon="105.019471"/>
      <trkpt lat="51.881884" lon="105.020328"/>
      <trkpt lat="51.882008" lon="105.020275"/>
      <trkpt lat="51.882048" lon="105.020356"/>
      <trkpt lat="51.882240" lon="105.020613"/>
      <trkpt lat="51.883316" lon="105.021429"/>
      <trkpt lat="51.883932" lon="105.022382"/>
      <trkpt lat="51.884674" lon="105.023186"/>
      <trkpt lat="51.884866" lon="105.023572"/>
      <trkpt lat="51.884959" lon="105.023991"/>
      <trkpt lat="51.885031" lon="105.024216"/>
      <trkpt lat="51.885144" lon="105.024431"/>
      <trkpt lat="51.885819" lon="105.025364"/>
      <trkpt lat="51.886038" lon="105.025879"/>
      <trkpt lat="51.886051" lon="105.026147"/>
      <trkpt lat="51.886098" lon="105.026598"/>
      <trkpt lat="51.886415" lon="105.026823"/>
      <trkpt lat="51.886541" lon="105.026845"/>
      <trkpt lat="51.886568" lon="105.026984"/>
      <trkpt lat="51.886468" lon="105.027639"/>
      <trkpt lat="51.886853" lon="105.028433"/>
      <trkpt lat="51.886866" lon="105.028765"/>
      <trkpt lat="51.886939" lon="105.028980"/>
      <trkpt lat="51.887296" lon="105.029516"/>
      <trkpt lat="51.887217" lon="105.030299"/>
      <trkpt lat="51.887270" lon="105.030600"/>
      <trkpt lat="51.887753" lon="105.031866"/>
      <trkpt lat="51.887998" lon="105.032231"/>
      <trkpt lat="51.888415" lon="105.032799"/>
      <trkpt lat="51.888475" lon="105.033014"/>
      <trkpt lat="51.888455" lon="105.033186"/>
      <trkpt lat="51.888210" lon="105.033969"/>
      <trkpt lat="51.888217" lon="105.034377"/>
      <trkpt lat="51.888230" lon="105.034785"/>
      <trkpt lat="51.888277" lon="105.035300"/>
      <trkpt lat="51.888311" lon="105.036014"/>
      <trkpt lat="51.888368" lon="105.036395"/>
      <trkpt lat="51.888372" lon="105.036552"/>
      <trkpt lat="51.888378" lon="105.036775"/>
      <trkpt lat="51.888378" lon="105.036778"/>
      <trkpt lat="51.888386" lon="105.037069"/>
      <trkpt lat="51.888416" lon="105.037313"/>
      <trkpt lat="51.888446" lon="105.037437"/>
      <trkpt lat="51.888503" lon="105.037674"/>
      <trkpt lat="51.888504" lon="105.037676"/>
      <trkpt lat="51.888773" lon="105.038046"/>
      <trkpt lat="51.888834" lon="105.038200"/>
      <trkpt lat="51.889098" lon="105.038862"/>
      <trkpt lat="51.889674" lon="105.039892"/>
      <trkpt lat="51.890482" lon="105.041029"/>
      <trkpt lat="51.890574" lon="105.041254"/>
      <trkpt lat="51.890834" lon="105.042097"/>
      <trkpt lat="51.891211" lon="105.042816"/>
      <trkpt lat="51.891383" lon="105.043213"/>
      <trkpt lat="51.892052" lon="105.045165"/>
      <trkpt lat="51.892628" lon="105.046313"/>
      <trkpt lat="51.893297" lon="105.047665"/>
      <trkpt lat="51.893648" lon="105.049575"/>
      <trkpt lat="51.894561" lon="105.051367"/>
      <trkpt lat="51.894780" lon="105.051806"/>
      <trkpt lat="51.894972" lon="105.052300"/>
      <trkpt lat="51.895157" lon="105.052793"/>
      <trkpt lat="51.895323" lon="105.053255"/>
      <trkpt lat="51.895415" lon="105.053630"/>
      <trkpt lat="51.895581" lon="105.054564"/>
      <trkpt lat="51.895759" lon="105.055045"/>
      <trkpt lat="51.896077" lon="105.055367"/>
      <trkpt lat="51.896613" lon="105.055689"/>
      <trkpt lat="51.896977" lon="105.056644"/>
      <trkpt lat="51.897500" lon="105.057427"/>
      <trkpt lat="51.898056" lon="105.058886"/>
      <trkpt lat="51.899208" lon="105.061322"/>
      <trkpt lat="51.899459" lon="105.062088"/>
      <trkpt lat="51.899463" lon="105.062095"/>
      <trkpt lat="51.899514" lon="105.062229"/>
      <trkpt lat="51.899533" lon="105.062313"/>
      <trkpt lat="51.899561" lon="105.062398"/>
      <trkpt lat="51.899585" lon="105.062598"/>
      <trkpt lat="51.899671" lon="105.062867"/>
      <trkpt lat="51.899847" lon="105.063271"/>
      <trkpt lat="51.899924" lon="105.063413"/>
      <trkpt lat="51.899955" lon="105.063503"/>
      <trkpt lat="51.899956" lon="105.063520"/>
      <trkpt lat="51.900074" lon="105.063792"/>
      <trkpt lat="51.900133" lon="105.063878"/>
      <trkpt lat="51.900187" lon="105.063959"/>
      <trkpt lat="51.900609" lon="105.064583"/>
      <trkpt lat="51.900609" lon="105.064583"/>
      <trkpt lat="51.901259" lon="105.065272"/>
      <trkpt lat="51.901703" lon="105.065626"/>
      <trkpt lat="51.902014" lon="105.066163"/>
      <trkpt lat="51.902365" lon="105.066581"/>
      <trkpt lat="51.902756" lon="105.067279"/>
      <trkpt lat="51.902994" lon="105.067804"/>
      <trkpt lat="51.903157" lon="105.068187"/>
      <trkpt lat="51.903272" lon="105.068459"/>
      <trkpt lat="51.903371" lon="105.068877"/>
      <trkpt lat="51.903417" lon="105.069499"/>
      <trkpt lat="51.903398" lon="105.070154"/>
      <trkpt lat="51.903378" lon="105.070744"/>
      <trkpt lat="51.903351" lon="105.072300"/>
      <trkpt lat="51.904106" lon="105.072418"/>
      <trkpt lat="51.904351" lon="105.072600"/>
      <trkpt lat="51.904503" lon="105.072954"/>
      <trkpt lat="51.904510" lon="105.073115"/>
      <trkpt lat="51.904384" lon="105.073544"/>
      <trkpt lat="51.904336" lon="105.073754"/>
      <trkpt lat="51.904276" lon="105.074014"/>
      <trkpt lat="51.904315" lon="105.075302"/>
      <trkpt lat="51.904263" lon="105.076267"/>
      <trkpt lat="51.904037" lon="105.076589"/>
      <trkpt lat="51.904059" lon="105.077191"/>
      <trkpt lat="51.904116" lon="105.077858"/>
      <trkpt lat="51.904171" lon="105.078541"/>
      <trkpt lat="51.904279" lon="105.079086"/>
      <trkpt lat="51.904329" lon="105.079336"/>
      <trkpt lat="51.904368" lon="105.080259"/>
      <trkpt lat="51.904493" lon="105.080947"/>
      <trkpt lat="51.904567" lon="105.081353"/>
      <trkpt lat="51.904713" lon="105.082404"/>
      <trkpt lat="51.904739" lon="105.083069"/>
      <trkpt lat="51.904734" lon="105.083098"/>
      <trkpt lat="51.904636" lon="105.083640"/>
      <trkpt lat="51.904623" lon="105.083978"/>
      <trkpt lat="51.904805" lon="105.084507"/>
      <trkpt lat="51.904911" lon="105.085323"/>
      <trkpt lat="51.904989" lon="105.085771"/>
      <trkpt lat="51.905064" lon="105.086454"/>
      <trkpt lat="51.905209" lon="105.087399"/>
      <trkpt lat="51.905289" lon="105.088729"/>
      <trkpt lat="51.905302" lon="105.089458"/>
      <trkpt lat="51.905421" lon="105.090446"/>
      <trkpt lat="51.905819" lon="105.090660"/>
      <trkpt lat="51.905660" lon="105.091368"/>
      <trkpt lat="51.905779" lon="105.092355"/>
      <trkpt lat="51.905805" lon="105.093278"/>
      <trkpt lat="51.905719" lon="105.094072"/>
      <trkpt lat="51.905620" lon="105.094651"/>
      <trkpt lat="51.905627" lon="105.095123"/>
      <trkpt lat="51.905574" lon="105.095756"/>
      <trkpt lat="51.905521" lon="105.096303"/>
      <trkpt lat="51.905468" lon="105.096722"/>
      <trkpt lat="51.905448" lon="105.097205"/>
      <trkpt lat="51.905382" lon="105.097859"/>
      <trkpt lat="51.905296" lon="105.098256"/>
      <trkpt lat="51.905170" lon="105.098750"/>
      <trkpt lat="51.904932" lon="105.099458"/>
      <trkpt lat="51.904839" lon="105.099780"/>
      <trkpt lat="51.904241" lon="105.101665"/>
      <trkpt lat="51.904069" lon="105.102169"/>
      <trkpt lat="51.903904" lon="105.102641"/>
      <trkpt lat="51.903805" lon="105.102995"/>
      <trkpt lat="51.903659" lon="105.103371"/>
      <trkpt lat="51.903467" lon="105.103714"/>
      <trkpt lat="51.903321" lon="105.103972"/>
      <trkpt lat="51.903189" lon="105.104100"/>
      <trkpt lat="51.902916" lon="105.104225"/>
      <trkpt lat="51.902863" lon="105.104343"/>
      <trkpt lat="51.902721" lon="105.104606"/>
      <trkpt lat="51.902565" lon="105.104897"/>
      <trkpt lat="51.902249" lon="105.105418"/>
      <trkpt lat="51.902084" lon="105.105743"/>
      <trkpt lat="51.901966" lon="105.105973"/>
      <trkpt lat="51.901634" lon="105.106547"/>
      <trkpt lat="51.901630" lon="105.106554"/>
      <trkpt lat="51.900982" lon="105.107909"/>
      <trkpt lat="51.900982" lon="105.107909"/>
      <trkpt lat="51.900914" lon="105.108075"/>
      <trkpt lat="51.900839" lon="105.108257"/>
      <trkpt lat="51.900747" lon="105.108632"/>
      <trkpt lat="51.900738" lon="105.108722"/>
      <trkpt lat="51.900738" lon="105.108723"/>
      <trkpt lat="51.900716" lon="105.108933"/>
      <trkpt lat="51.900678" lon="105.109045"/>
      <trkpt lat="51.900566" lon="105.109378"/>
      <trkpt lat="51.900434" lon="105.109766"/>
      <trkpt lat="51.899968" lon="105.111115"/>
      <trkpt lat="51.899865" lon="105.111396"/>
      <trkpt lat="51.899832" lon="105.111484"/>
      <trkpt lat="51.899751" lon="105.111647"/>
      <trkpt lat="51.899644" lon="105.111862"/>
      <trkpt lat="51.899629" lon="105.111903"/>
      <trkpt lat="51.899469" lon="105.112314"/>
      <trkpt lat="51.899378" lon="105.112568"/>
      <trkpt lat="51.899469" lon="105.113004"/>
      <trkpt lat="51.899264" lon="105.113744"/>
      <trkpt lat="51.899138" lon="105.114238"/>
      <trkpt lat="51.899012" lon="105.115300"/>
      <trkpt lat="51.899277" lon="105.116137"/>
      <trkpt lat="51.899416" lon="105.116619"/>
      <trkpt lat="51.899568" lon="105.117456"/>
      <trkpt lat="51.899615" lon="105.118872"/>
      <trkpt lat="51.899628" lon="105.119377"/>
      <trkpt lat="51.899462" lon="105.120353"/>
      <trkpt lat="51.899442" lon="105.120954"/>
      <trkpt lat="51.899321" lon="105.121692"/>
      <trkpt lat="51.899215" lon="105.122174"/>
      <trkpt lat="51.898841" lon="105.123406"/>
      <trkpt lat="51.898884" lon="105.124138"/>
      <trkpt lat="51.898964" lon="105.124492"/>
      <trkpt lat="51.899136" lon="105.124653"/>
      <trkpt lat="51.899440" lon="105.124900"/>
      <trkpt lat="51.899864" lon="105.125500"/>
      <trkpt lat="51.900715" lon="105.125611"/>
      <trkpt lat="51.901132" lon="105.125858"/>
      <trkpt lat="51.901238" lon="105.126706"/>
      <trkpt lat="51.901370" lon="105.127156"/>
      <trkpt lat="51.901629" lon="105.127424"/>
      <trkpt lat="51.901490" lon="105.127607"/>
      <trkpt lat="51.901212" lon="105.127714"/>
      <trkpt lat="51.900967" lon="105.127811"/>
      <trkpt lat="51.900755" lon="105.128079"/>
      <trkpt lat="51.900589" lon="105.128605"/>
      <trkpt lat="51.900477" lon="105.129045"/>
      <trkpt lat="51.900384" lon="105.130235"/>
      <trkpt lat="51.900166" lon="105.130858"/>
      <trkpt lat="51.900139" lon="105.131512"/>
      <trkpt lat="51.900119" lon="105.132553"/>
      <trkpt lat="51.900080" lon="105.133229"/>
      <trkpt lat="51.899689" lon="105.134827"/>
      <trkpt lat="51.900490" lon="105.134731"/>
      <trkpt lat="51.900750" lon="105.135290"/>
      <trkpt lat="51.900379" lon="105.135784"/>
      <trkpt lat="51.899823" lon="105.135955"/>
      <trkpt lat="51.899340" lon="105.136588"/>
      <trkpt lat="51.898618" lon="105.137060"/>
      <trkpt lat="51.898384" lon="105.137382"/>
      <trkpt lat="51.898423" lon="105.137373"/>
      <trkpt lat="51.898463" lon="105.137383"/>
      <trkpt lat="51.898486" lon="105.137589"/>
      <trkpt lat="51.898493" lon="105.137908"/>
      <trkpt lat="51.898494" lon="105.138064"/>
      <trkpt lat="51.898534" lon="105.138234"/>
      <trkpt lat="51.898559" lon="105.138332"/>
      <trkpt lat="51.898591" lon="105.138493"/>
      <trkpt lat="51.898635" lon="105.138640"/>
      <trkpt lat="51.898681" lon="105.138769"/>
      <trkpt lat="51.898741" lon="105.138905"/>
      <trkpt lat="51.898834" lon="105.139037"/>
      <trkpt lat="51.898873" lon="105.139304"/>
      <trkpt lat="51.898917" lon="105.139495"/>
      <trkpt lat="51.898921" lon="105.139654"/>
      <trkpt lat="51.898947" lon="105.139777"/>
      <trkpt lat="51.899018" lon="105.139821"/>
      <trkpt lat="51.899110" lon="105.139851"/>
      <trkpt lat="51.899147" lon="105.140048"/>
      <trkpt lat="51.899166" lon="105.140130"/>
      <trkpt lat="51.899251" lon="105.140280"/>
      <trkpt lat="51.899301" lon="105.140486"/>
      <trkpt lat="51.899363" lon="105.140590"/>
      <trkpt lat="51.899449" lon="105.140625"/>
      <trkpt lat="51.899518" lon="105.140634"/>
      <trkpt lat="51.899551" lon="105.140689"/>
      <trkpt lat="51.899617" lon="105.140767"/>
      <trkpt lat="51.899618" lon="105.140768"/>
      <trkpt lat="51.899620" lon="105.140768"/>
      <trkpt lat="51.899720" lon="105.140773"/>
      <trkpt lat="51.899761" lon="105.140867"/>
      <trkpt lat="51.899835" lon="105.140931"/>
      <trkpt lat="51.899839" lon="105.140948"/>
      <trkpt lat="51.899826" lon="105.141020"/>
      <trkpt lat="51.899952" lon="105.140996"/>
      <trkpt lat="51.899997" lon="105.140901"/>
      <trkpt lat="51.900045" lon="105.140791"/>
      <trkpt lat="51.900073" lon="105.140727"/>
      <trkpt lat="51.900102" lon="105.140535"/>
      <trkpt lat="51.900235" lon="105.140422"/>
      <trkpt lat="51.900396" lon="105.140388"/>
      <trkpt lat="51.900703" lon="105.140717"/>
      <trkpt lat="51.900762" lon="105.140912"/>
      <trkpt lat="51.900744" lon="105.141118"/>
      <trkpt lat="51.900719" lon="105.141306"/>
      <trkpt lat="51.900628" lon="105.141449"/>
      <trkpt lat="51.900476" lon="105.141581"/>
      <trkpt lat="51.900361" lon="105.141674"/>
      <trkpt lat="51.900175" lon="105.141786"/>
      <trkpt lat="51.900157" lon="105.141801"/>
      <trkpt lat="51.899999" lon="105.141970"/>
      <trkpt lat="51.899951" lon="105.142048"/>
      <trkpt lat="51.899919" lon="105.142384"/>
      <trkpt lat="51.899926" lon="105.142566"/>
      <trkpt lat="51.899927" lon="105.142743"/>
      <trkpt lat="51.899925" lon="105.142912"/>
      <trkpt lat="51.899889" lon="105.143077"/>
      <trkpt lat="51.899892" lon="105.143219"/>
      <trkpt lat="51.899948" lon="105.143345"/>
      <trkpt lat="51.899942" lon="105.143475"/>
      <trkpt lat="51.899904" lon="105.143598"/>
      <trkpt lat="51.899843" lon="105.143679"/>
      <trkpt lat="51.899767" lon="105.143758"/>
      <trkpt lat="51.899735" lon="105.143823"/>
      <trkpt lat="51.899735" lon="105.143860"/>
      <trkpt lat="51.899810" lon="105.143939"/>
      <trkpt lat="51.899913" lon="105.144021"/>
      <trkpt lat="51.899931" lon="105.144239"/>
      <trkpt lat="51.899851" lon="105.144457"/>
      <trkpt lat="51.899770" lon="105.144627"/>
      <trkpt lat="51.899724" lon="105.144775"/>
      <trkpt lat="51.899688" lon="105.144901"/>
      <trkpt lat="51.899659" lon="105.145039"/>
      <trkpt lat="51.899627" lon="105.145163"/>
      <trkpt lat="51.899613" lon="105.145312"/>
      <trkpt lat="51.899616" lon="105.145434"/>
      <trkpt lat="51.899578" lon="105.145466"/>
      <trkpt lat="51.899580" lon="105.145535"/>
      <trkpt lat="51.899568" lon="105.145676"/>
      <trkpt lat="51.899587" lon="105.145849"/>
      <trkpt lat="51.899612" lon="105.146010"/>
      <trkpt lat="51.899651" lon="105.146263"/>
      <trkpt lat="51.899694" lon="105.146422"/>
      <trkpt lat="51.899760" lon="105.146619"/>
      <trkpt lat="51.899808" lon="105.146761"/>
      <trkpt lat="51.899836" lon="105.146868"/>
      <trkpt lat="51.899884" lon="105.147038"/>
      <trkpt lat="51.899938" lon="105.147210"/>
      <trkpt lat="51.899984" lon="105.147349"/>
      <trkpt lat="51.900012" lon="105.147453"/>
      <trkpt lat="51.900088" lon="105.147572"/>
      <trkpt lat="51.900165" lon="105.147600"/>
      <trkpt lat="51.900235" lon="105.147689"/>
      <trkpt lat="51.900278" lon="105.147853"/>
      <trkpt lat="51.900277" lon="105.148056"/>
      <trkpt lat="51.900234" lon="105.148122"/>
      <trkpt lat="51.900160" lon="105.148235"/>
      <trkpt lat="51.900061" lon="105.148340"/>
      <trkpt lat="51.900015" lon="105.148419"/>
      <trkpt lat="51.900035" lon="105.148433"/>
      <trkpt lat="51.900032" lon="105.148435"/>
      <trkpt lat="51.900050" lon="105.148428"/>
      <trkpt lat="51.899995" lon="105.148459"/>
      <trkpt lat="51.899956" lon="105.148487"/>
      <trkpt lat="51.899906" lon="105.148468"/>
      <trkpt lat="51.899790" lon="105.148496"/>
      <trkpt lat="51.899761" lon="105.148531"/>
      <trkpt lat="51.899714" lon="105.148512"/>
      <trkpt lat="51.899706" lon="105.148540"/>
      <trkpt lat="51.899668" lon="105.148527"/>
      <trkpt lat="51.899612" lon="105.148512"/>
      <trkpt lat="51.899549" lon="105.148503"/>
      <trkpt lat="51.899565" lon="105.148552"/>
      <trkpt lat="51.899564" lon="105.148571"/>
      <trkpt lat="51.899532" lon="105.148589"/>
      <trkpt lat="51.899468" lon="105.148618"/>
      <trkpt lat="51.899465" lon="105.148620"/>
      <trkpt lat="51.899425" lon="105.148666"/>
      <trkpt lat="51.899457" lon="105.148778"/>
      <trkpt lat="51.899484" lon="105.149007"/>
      <trkpt lat="51.899456" lon="105.149206"/>
      <trkpt lat="51.899457" lon="105.149475"/>
      <trkpt lat="51.899505" lon="105.149780"/>
      <trkpt lat="51.899527" lon="105.150028"/>
      <trkpt lat="51.899562" lon="105.150223"/>
      <trkpt lat="51.899653" lon="105.150532"/>
      <trkpt lat="51.899727" lon="105.150702"/>
      <trkpt lat="51.899785" lon="105.150836"/>
      <trkpt lat="51.899827" lon="105.151138"/>
      <trkpt lat="51.899838" lon="105.151453"/>
      <trkpt lat="51.899863" lon="105.151615"/>
      <trkpt lat="51.899905" lon="105.151872"/>
      <trkpt lat="51.899947" lon="105.152184"/>
      <trkpt lat="51.899962" lon="105.152457"/>
      <trkpt lat="51.900014" lon="105.152649"/>
      <trkpt lat="51.900066" lon="105.152882"/>
      <trkpt lat="51.900068" lon="105.152911"/>
      <trkpt lat="51.900098" lon="105.153066"/>
      <trkpt lat="51.900130" lon="105.153269"/>
      <trkpt lat="51.900133" lon="105.153333"/>
      <trkpt lat="51.900152" lon="105.153466"/>
      <trkpt lat="51.900144" lon="105.153638"/>
      <trkpt lat="51.900127" lon="105.153854"/>
      <trkpt lat="51.900206" lon="105.154168"/>
      <trkpt lat="51.900149" lon="105.154318"/>
      <trkpt lat="51.899962" lon="105.154581"/>
      <trkpt lat="51.899770" lon="105.154741"/>
      <trkpt lat="51.899581" lon="105.154903"/>
      <trkpt lat="51.898969" lon="105.155348"/>
      <trkpt lat="51.899121" lon="105.155810"/>
      <trkpt lat="51.899386" lon="105.156271"/>
      <trkpt lat="51.899829" lon="105.156421"/>
      <trkpt lat="51.900127" lon="105.156485"/>
      <trkpt lat="51.900319" lon="105.156754"/>
      <trkpt lat="51.900337" lon="105.157275"/>
      <trkpt lat="51.900558" lon="105.157419"/>
      <trkpt lat="51.900756" lon="105.157709"/>
      <trkpt lat="51.900912" lon="105.158175"/>
      <trkpt lat="51.900912" lon="105.158176"/>
      <trkpt lat="51.900912" lon="105.158177"/>
      <trkpt lat="51.901147" lon="105.158621"/>
      <trkpt lat="51.901259" lon="105.159275"/>
      <trkpt lat="51.901272" lon="105.160026"/>
      <trkpt lat="51.901292" lon="105.160659"/>
      <trkpt lat="51.901345" lon="105.161077"/>
      <trkpt lat="51.901458" lon="105.161775"/>
      <trkpt lat="51.901637" lon="105.162107"/>
      <trkpt lat="51.901954" lon="105.162612"/>
      <trkpt lat="51.902193" lon="105.162966"/>
      <trkpt lat="51.902391" lon="105.163266"/>
      <trkpt lat="51.902796" lon="105.163668"/>
      <trkpt lat="51.902796" lon="105.163668"/>
      <trkpt lat="51.902797" lon="105.163669"/>
      <trkpt lat="51.903406" lon="105.163823"/>
      <trkpt lat="51.903777" lon="105.163887"/>
      <trkpt lat="51.904161" lon="105.164069"/>
      <trkpt lat="51.904294" lon="105.164209"/>
      <trkpt lat="51.904485" lon="105.164681"/>
      <trkpt lat="51.904611" lon="105.164885"/>
      <trkpt lat="51.904671" lon="105.165165"/>
      <trkpt lat="51.904810" lon="105.165614"/>
      <trkpt lat="51.904843" lon="105.166001"/>
      <trkpt lat="51.904922" lon="105.166247"/>
      <trkpt lat="51.905079" lon="105.166637"/>
      <trkpt lat="51.905080" lon="105.166638"/>
      <trkpt lat="51.905103" lon="105.166658"/>
      <trkpt lat="51.905106" lon="105.166665"/>
      <trkpt lat="51.905326" lon="105.166891"/>
      <trkpt lat="51.905571" lon="105.167170"/>
      <trkpt lat="51.905776" lon="105.167417"/>
      <trkpt lat="51.905995" lon="105.167610"/>
      <trkpt lat="51.906193" lon="105.167986"/>
      <trkpt lat="51.906425" lon="105.168425"/>
      <trkpt lat="51.906617" lon="105.168790"/>
      <trkpt lat="51.906870" lon="105.169331"/>
      <trkpt lat="51.907082" lon="105.169632"/>
      <trkpt lat="51.907188" lon="105.169836"/>
      <trkpt lat="51.907340" lon="105.170469"/>
      <trkpt lat="51.907399" lon="105.170876"/>
      <trkpt lat="51.907433" lon="105.171359"/>
      <trkpt lat="51.907479" lon="105.171799"/>
      <trkpt lat="51.907519" lon="105.172035"/>
      <trkpt lat="51.907618" lon="105.172389"/>
      <trkpt lat="51.907624" lon="105.172679"/>
      <trkpt lat="51.907519" lon="105.172958"/>
      <trkpt lat="51.907492" lon="105.173226"/>
      <trkpt lat="51.907492" lon="105.173870"/>
      <trkpt lat="51.907651" lon="105.174374"/>
      <trkpt lat="51.907876" lon="105.175050"/>
      <trkpt lat="51.908008" lon="105.175608"/>
      <trkpt lat="51.908114" lon="105.176327"/>
      <trkpt lat="51.908167" lon="105.176584"/>
      <trkpt lat="51.908207" lon="105.177217"/>
      <trkpt lat="51.908227" lon="105.177550"/>
      <trkpt lat="51.908300" lon="105.177882"/>
      <trkpt lat="51.908439" lon="105.178258"/>
      <trkpt lat="51.908617" lon="105.178580"/>
      <trkpt lat="51.908670" lon="105.178826"/>
      <trkpt lat="51.908812" lon="105.179298"/>
      <trkpt lat="51.908885" lon="105.179899"/>
      <trkpt lat="51.908931" lon="105.180124"/>
      <trkpt lat="51.909130" lon="105.180543"/>
      <trkpt lat="51.909229" lon="105.180833"/>
      <trkpt lat="51.909434" lon="105.181358"/>
      <trkpt lat="51.909527" lon="105.181734"/>
      <trkpt lat="51.909659" lon="105.182925"/>
      <trkpt lat="51.909706" lon="105.183343"/>
      <trkpt lat="51.909838" lon="105.184030"/>
      <trkpt lat="51.909984" lon="105.184416"/>
      <trkpt lat="51.910169" lon="105.184609"/>
      <trkpt lat="51.910288" lon="105.184759"/>
      <trkpt lat="51.910434" lon="105.185124"/>
      <trkpt lat="51.910612" lon="105.185446"/>
      <trkpt lat="51.910884" lon="105.185682"/>
      <trkpt lat="51.911102" lon="105.185821"/>
      <trkpt lat="51.911288" lon="105.186079"/>
      <trkpt lat="51.911413" lon="105.186358"/>
      <trkpt lat="51.911539" lon="105.186487"/>
      <trkpt lat="51.911757" lon="105.186723"/>
      <trkpt lat="51.912406" lon="105.187130"/>
      <trkpt lat="51.912955" lon="105.187688"/>
      <trkpt lat="51.913663" lon="105.188482"/>
      <trkpt lat="51.914299" lon="105.189351"/>
      <trkpt lat="51.914676" lon="105.190167"/>
      <trkpt lat="51.914802" lon="105.190295"/>
      <trkpt lat="51.915086" lon="105.191068"/>
      <trkpt lat="51.915740" lon="105.193949"/>
      <trkpt lat="51.916442" lon="105.197747"/>
      <trkpt lat="51.916733" lon="105.198820"/>
      <trkpt lat="51.916812" lon="105.199528"/>
      <trkpt lat="51.916839" lon="105.200194"/>
      <trkpt lat="51.916839" lon="105.200709"/>
      <trkpt lat="51.916720" lon="105.201438"/>
      <trkpt lat="51.916693" lon="105.202275"/>
      <trkpt lat="51.917011" lon="105.202833"/>
      <trkpt lat="51.916733" lon="105.203884"/>
      <trkpt lat="51.917011" lon="105.204936"/>
      <trkpt lat="51.917143" lon="105.205987"/>
      <trkpt lat="51.917236" lon="105.206631"/>
      <trkpt lat="51.917408" lon="105.207189"/>
      <trkpt lat="51.917619" lon="105.207854"/>
      <trkpt lat="51.917831" lon="105.208991"/>
      <trkpt lat="51.917937" lon="105.209871"/>
      <trkpt lat="51.917990" lon="105.210879"/>
      <trkpt lat="51.918122" lon="105.212296"/>
      <trkpt lat="51.918408" lon="105.213910"/>
      <trkpt lat="51.918329" lon="105.215498"/>
      <trkpt lat="51.918183" lon="105.216421"/>
      <trkpt lat="51.918091" lon="105.217365"/>
      <trkpt lat="51.917985" lon="105.218030"/>
      <trkpt lat="51.917839" lon="105.218910"/>
      <trkpt lat="51.917773" lon="105.219618"/>
      <trkpt lat="51.917707" lon="105.220176"/>
      <trkpt lat="51.917627" lon="105.220498"/>
      <trkpt lat="51.917614" lon="105.221528"/>
      <trkpt lat="51.917574" lon="105.222407"/>
      <trkpt lat="51.917641" lon="105.223244"/>
      <trkpt lat="51.917958" lon="105.224274"/>
      <trkpt lat="51.918316" lon="105.224918"/>
      <trkpt lat="51.918647" lon="105.225690"/>
      <trkpt lat="51.919176" lon="105.227021"/>
      <trkpt lat="51.919520" lon="105.227815"/>
      <trkpt lat="51.919838" lon="105.228523"/>
      <trkpt lat="51.920235" lon="105.229145"/>
      <trkpt lat="51.920592" lon="105.229660"/>
      <trkpt lat="51.921212" lon="105.230820"/>
      <trkpt lat="51.921556" lon="105.232000"/>
      <trkpt lat="51.921939" lon="105.233416"/>
      <trkpt lat="51.922045" lon="105.234532"/>
      <trkpt lat="51.922786" lon="105.237536"/>
      <trkpt lat="51.923197" lon="105.238823"/>
      <trkpt lat="51.923474" lon="105.239574"/>
      <trkpt lat="51.924335" lon="105.240776"/>
      <trkpt lat="51.924890" lon="105.241334"/>
      <trkpt lat="51.925314" lon="105.241870"/>
      <trkpt lat="51.926981" lon="105.244874"/>
      <trkpt lat="51.928397" lon="105.247771"/>
      <trkpt lat="51.929324" lon="105.249790"/>
      <trkpt lat="51.929655" lon="105.250734"/>
      <trkpt lat="51.930118" lon="105.251399"/>
      <trkpt lat="51.930542" lon="105.251764"/>
      <trkpt lat="51.931170" lon="105.252751"/>
      <trkpt lat="51.932129" lon="105.254039"/>
      <trkpt lat="51.932877" lon="105.255026"/>
      <trkpt lat="51.933366" lon="105.255487"/>
      <trkpt lat="51.933448" lon="105.255662"/>
      <trkpt lat="51.933512" lon="105.255798"/>
      <trkpt lat="51.934663" lon="105.256581"/>
      <trkpt lat="51.935444" lon="105.257193"/>
      <trkpt lat="51.935993" lon="105.257450"/>
      <trkpt lat="51.937355" lon="105.257794"/>
      <trkpt lat="51.938447" lon="105.258040"/>
      <trkpt lat="51.940533" lon="105.258360"/>
      <trkpt lat="51.940534" lon="105.258361"/>
      <trkpt lat="51.940882" lon="105.258469"/>
      <trkpt lat="51.941071" lon="105.258528"/>
      <trkpt lat="51.941223" lon="105.258570"/>
      <trkpt lat="51.941400" lon="105.258594"/>
      <trkpt lat="51.941476" lon="105.258595"/>
      <trkpt lat="51.941628" lon="105.258598"/>
      <trkpt lat="51.941932" lon="105.258606"/>
      <trkpt lat="51.942007" lon="105.258609"/>
      <trkpt lat="51.942391" lon="105.258588"/>
      <trkpt lat="51.942392" lon="105.258588"/>
      <trkpt lat="51.942394" lon="105.258589"/>
      <trkpt lat="51.942831" lon="105.258696"/>
      <trkpt lat="51.943137" lon="105.258696"/>
      <trkpt lat="51.943148" lon="105.258696"/>
      <trkpt lat="51.943159" lon="105.258699"/>
      <trkpt lat="51.943912" lon="105.258808"/>
      <trkpt lat="51.947442" lon="105.259225"/>
      <trkpt lat="51.950140" lon="105.259397"/>
      <trkpt lat="51.952018" lon="105.260084"/>
      <trkpt lat="51.953393" lon="105.260942"/>
      <trkpt lat="51.955430" lon="105.261114"/>
      <trkpt lat="51.956382" lon="105.261457"/>
      <trkpt lat="51.958392" lon="105.262616"/>
      <trkpt lat="51.961539" lon="105.265491"/>
      <trkpt lat="51.965700" lon="105.268954"/>
      <trkpt lat="51.967260" lon="105.269469"/>
      <trkpt lat="51.970327" lon="105.270670"/>
      <trkpt lat="51.972548" lon="105.272130"/>
      <trkpt lat="51.974795" lon="105.275048"/>
      <trkpt lat="51.976698" lon="105.277537"/>
      <trkpt lat="51.978152" lon="105.280670"/>
      <trkpt lat="51.979738" lon="105.282858"/>
      <trkpt lat="51.981483" lon="105.285433"/>
      <trkpt lat="51.982699" lon="105.287708"/>
      <trkpt lat="51.983862" lon="105.290712"/>
      <trkpt lat="51.984258" lon="105.292772"/>
      <trkpt lat="51.984549" lon="105.294102"/>
      <trkpt lat="51.984893" lon="105.297922"/>
      <trkpt lat="51.985210" lon="105.300411"/>
      <trkpt lat="51.986161" lon="105.302428"/>
      <trkpt lat="51.987298" lon="105.305089"/>
      <trkpt lat="51.987509" lon="105.307406"/>
      <trkpt lat="51.987720" lon="105.309552"/>
      <trkpt lat="51.987879" lon="105.311011"/>
      <trkpt lat="51.986743" lon="105.312255"/>
      <trkpt lat="51.986609" lon="105.313500"/>
      <trkpt lat="51.986609" lon="105.313500"/>
      <trkpt lat="51.986630" lon="105.313585"/>
      <trkpt lat="51.987116" lon="105.315526"/>
      <trkpt lat="51.987116" lon="105.315527"/>
      <trkpt lat="51.987339" lon="105.315863"/>
      <trkpt lat="51.987624" lon="105.316395"/>
      <trkpt lat="51.987854" lon="105.316813"/>
      <trkpt lat="51.988110" lon="105.317368"/>
      <trkpt lat="51.988313" lon="105.317991"/>
      <trkpt lat="51.988493" lon="105.318735"/>
      <trkpt lat="51.988493" lon="105.318736"/>
      <trkpt lat="51.988493" lon="105.318737"/>
      <trkpt lat="51.988660" lon="105.319469"/>
      <trkpt lat="51.988737" lon="105.319870"/>
      <trkpt lat="51.988813" lon="105.320661"/>
      <trkpt lat="51.988841" lon="105.321383"/>
      <trkpt lat="51.988841" lon="105.321385"/>
      <trkpt lat="51.989378" lon="105.322399"/>
      <trkpt lat="51.989378" lon="105.322399"/>
      <trkpt lat="51.989589" lon="105.322643"/>
      <trkpt lat="51.989760" lon="105.322934"/>
      <trkpt lat="51.989893" lon="105.323193"/>
      <trkpt lat="51.989980" lon="105.323452"/>
      <trkpt lat="51.989997" lon="105.323503"/>
      <trkpt lat="51.990491" lon="105.324381"/>
      <trkpt lat="51.990495" lon="105.324388"/>
      <trkpt lat="51.990657" lon="105.324637"/>
      <trkpt lat="51.990786" lon="105.324902"/>
      <trkpt lat="51.990848" lon="105.325046"/>
      <trkpt lat="51.991790" lon="105.326804"/>
      <trkpt lat="51.993006" lon="105.328563"/>
      <trkpt lat="51.995120" lon="105.331396"/>
      <trkpt lat="51.996177" lon="105.333241"/>
      <trkpt lat="51.996282" lon="105.333971"/>
      <trkpt lat="51.996705" lon="105.334528"/>
      <trkpt lat="51.997498" lon="105.335601"/>
      <trkpt lat="51.998423" lon="105.336631"/>
      <trkpt lat="52.000246" lon="105.338992"/>
      <trkpt lat="52.001593" lon="105.341180"/>
      <trkpt lat="52.003179" lon="105.343412"/>
      <trkpt lat="52.004288" lon="105.346502"/>
      <trkpt lat="52.005794" lon="105.349806"/>
      <trkpt lat="52.007115" lon="105.352467"/>
      <trkpt lat="52.007934" lon="105.355257"/>
      <trkpt lat="52.008090" lon="105.355999"/>
      <trkpt lat="52.008700" lon="105.358904"/>
      <trkpt lat="52.008911" lon="105.359806"/>
      <trkpt lat="52.009175" lon="105.360664"/>
      <trkpt lat="52.009413" lon="105.361136"/>
      <trkpt lat="52.009893" lon="105.362624"/>
    </trkseg>
  </trk>
</gpx>