<?xml version="1.0" encoding="UTF-8"?>
<gpx xmlns="http://www.topografix.com/GPX/1/1" version="1.1" creator="baikal50.cn">
  <metadata>
    <name>贝加尔湖50径 · 利斯特维扬卡—大戈洛 (ББТ)</name>
    <desc>贝加尔湖50径（贝加尔湖西岸50公里重装徒步）实测 GPS 轨迹，利斯特维扬卡（Листвянка）— 大戈洛（Большое Голоустное），实测总长约45.8公里。2025年7月实地记录。来源：https://baikal50.cn/ ｜ 溯源标记 baikal50.cn:trail:2025-07:LYK-BGO</desc>
    <author>
      <name>贝加尔湖50径 (baikal50.cn)</name>
      <link href="https://baikal50.cn/">
        <text>贝加尔湖50径 baikal50.cn</text>
      </link>
    </author>
    <copyright author="贝加尔湖50径 (baikal50.cn)">
      <year>2025</year>
      <license>https://baikal50.cn/license.html</license>
    </copyright>
    <keywords>贝加尔湖50径, Большая Байкальская тропа, GBT, GPX, 利斯特维扬卡, 大戈洛, Baikal, hiking</keywords>
    <link href="https://baikal50.cn/"><text>贝加尔湖50径 baikal50.cn</text></link>
    <time>2025-07-01T00:00:00Z</time>
  </metadata>
  <wpt lat="51.918567" lon="105.222450"><name>Кадилинские известняки</name></wpt>
  <wpt lat="51.855586" lon="104.889445"><name>Начало маршрута</name></wpt>
  <wpt lat="52.010845" lon="105.362422"><name>Окончание маршрута</name></wpt>
  <wpt lat="51.899033" lon="105.138800"><name>Скала Медвежья Лапа</name></wpt>
  <wpt lat="51.910367" lon="105.072800"><name>Старый золотоносный прииск на р. Большие Коты</name></wpt>
  <wpt lat="51.929711" lon="105.251284"><name>стоянка - Вблизи м.Большой Кадильный вторая площадка</name></wpt>
  <wpt lat="51.917477" lon="105.221713"><name>стоянка - Вблизи м.Большой Кадильный первая площадка (2 ночёвка)</name></wpt>
  <wpt lat="51.935740" lon="105.257108"><name>стоянка - Вблизи м.Большой Кадильный третья площадка</name></wpt>
  <wpt lat="51.899265" lon="105.151308"><name>стоянка - Вблизи мыса Соболев</name></wpt>
  <wpt lat="51.899357" lon="105.113162"><name>стоянка - Падь Б. и М. Сенная</name></wpt>
  <wpt lat="51.905520" lon="105.096082"><name>стоянка - Падь Варначья</name></wpt>
  <wpt lat="51.860242" lon="104.940165"><name>стоянка - Падь Емельяниха</name></wpt>
  <wpt lat="51.870796" lon="104.988399"><name>стоянка - Падь Средняя, вторая площадка</name></wpt>
  <wpt lat="51.870462" lon="104.983412"><name>стоянка - Падь Средняя, первая площадка</name></wpt>
  <wpt lat="51.888985" lon="105.037711"><name>стоянка - Падь Черная (1 ночёвка)</name></wpt>
  <wpt lat="51.865019" lon="104.961097"><name>стоянка - Р. Смородовка, вторая площадка в глубине берега</name></wpt>
  <wpt lat="51.864494" lon="104.959879"><name>стоянка - Р. Смородовка, первая площадка на пляже</name></wpt>
  <wpt lat="51.874884" lon="105.003041"><name>стоянка - Урочище Медвежье вторая площадка (падь Средняя)</name></wpt>
  <wpt lat="51.873703" lon="104.998477"><name>стоянка - Урочище Медвежье первая площадка (падь Тетериха)</name></wpt>
  <wpt lat="52.007665" lon="105.353815"><name>стоянка - Урочище Семеновка</name></wpt>
  <wpt lat="51.882100" lon="105.020306"><name>стоянка - Урочище Солонцовая</name></wpt>
  <wpt lat="51.986943" lon="105.312813"><name>стоянка - Ушканья падь</name></wpt>
  <wpt lat="51.905877" lon="105.167440"><name>Утёс Чаячий</name></wpt>
  <wpt lat="51.899817" lon="105.130680"><name>Утес Скрипер</name></wpt>
  <trk>
    <name>贝加尔湖50径 · 利斯特维扬卡—大戈洛 (ББТ)</name>
    <trkseg>
      <trkpt lat="51.856402" lon="104.890849"/>
      <trkpt lat="51.857203" lon="104.891677"/>
      <trkpt lat="51.858197" lon="104.893501"/>
      <trkpt lat="51.858290" lon="104.893952"/>
      <trkpt lat="51.858648" lon="104.894102"/>
      <trkpt lat="51.860980" lon="104.896870"/>
      <trkpt lat="51.862398" lon="104.898114"/>
      <trkpt lat="51.863180" lon="104.899230"/>
      <trkpt lat="51.863789" lon="104.900560"/>
      <trkpt lat="51.864147" lon="104.901526"/>
      <trkpt lat="51.864690" lon="104.903886"/>
      <trkpt lat="51.864777" lon="104.904915"/>
      <trkpt lat="51.865081" lon="104.906256"/>
      <trkpt lat="51.865128" lon="104.908252"/>
      <trkpt lat="51.865499" lon="104.909883"/>
      <trkpt lat="51.867327" lon="104.913541"/>
      <trkpt lat="51.867599" lon="104.914925"/>
      <trkpt lat="51.867632" lon="104.916427"/>
      <trkpt lat="51.867804" lon="104.917393"/>
      <trkpt lat="51.868586" lon="104.918627"/>
      <trkpt lat="51.869083" lon="104.919238"/>
      <trkpt lat="51.869129" lon="104.920429"/>
      <trkpt lat="51.869379" lon="104.920663"/>
      <trkpt lat="51.869524" lon="104.920631"/>
      <trkpt lat="51.869663" lon="104.920749"/>
      <trkpt lat="51.870419" lon="104.921725"/>
      <trkpt lat="51.870869" lon="104.923624"/>
      <trkpt lat="51.870068" lon="104.927132"/>
      <trkpt lat="51.870419" lon="104.926757"/>
      <trkpt lat="51.870458" lon="104.927948"/>
      <trkpt lat="51.870332" lon="104.928291"/>
      <trkpt lat="51.869802" lon="104.928431"/>
      <trkpt lat="51.870538" lon="104.928752"/>
      <trkpt lat="51.869339" lon="104.929343"/>
      <trkpt lat="51.870120" lon="104.929557"/>
      <trkpt lat="51.870670" lon="104.930029"/>
      <trkpt lat="51.870385" lon="104.929976"/>
      <trkpt lat="51.869584" lon="104.930233"/>
      <trkpt lat="51.870511" lon="104.930877"/>
      <trkpt lat="51.870723" lon="104.931349"/>
      <trkpt lat="51.871200" lon="104.931649"/>
      <trkpt lat="51.870644" lon="104.931671"/>
      <trkpt lat="51.870472" lon="104.931488"/>
      <trkpt lat="51.870061" lon="104.931445"/>
      <trkpt lat="51.870544" lon="104.932250"/>
      <trkpt lat="51.871690" lon="104.932915"/>
      <trkpt lat="51.870399" lon="104.933060"/>
      <trkpt lat="51.871270" lon="104.933688"/>
      <trkpt lat="51.870101" lon="104.933859"/>
      <trkpt lat="51.868555" lon="104.936156"/>
      <trkpt lat="51.866687" lon="104.937154"/>
      <trkpt lat="51.866183" lon="104.937315"/>
      <trkpt lat="51.865528" lon="104.937058"/>
      <trkpt lat="51.864706" lon="104.936972"/>
      <trkpt lat="51.863977" lon="104.937294"/>
      <trkpt lat="51.863454" lon="104.937379"/>
      <trkpt lat="51.862818" lon="104.937798"/>
      <trkpt lat="51.862188" lon="104.938055"/>
      <trkpt lat="51.861960" lon="104.938387"/>
      <trkpt lat="51.861404" lon="104.938795"/>
      <trkpt lat="51.860688" lon="104.939106"/>
      <trkpt lat="51.860327" lon="104.939487"/>
      <trkpt lat="51.860181" lon="104.939766"/>
      <trkpt lat="51.860181" lon="104.939937"/>
      <trkpt lat="51.860247" lon="104.940034"/>
      <trkpt lat="51.860820" lon="104.939556"/>
      <trkpt lat="51.862003" lon="104.939165"/>
      <trkpt lat="51.861506" lon="104.939776"/>
      <trkpt lat="51.861400" lon="104.940222"/>
      <trkpt lat="51.861685" lon="104.940790"/>
      <trkpt lat="51.861976" lon="104.941086"/>
      <trkpt lat="51.862533" lon="104.942508"/>
      <trkpt lat="51.862940" lon="104.942642"/>
      <trkpt lat="51.863089" lon="104.942889"/>
      <trkpt lat="51.863513" lon="104.943012"/>
      <trkpt lat="51.864040" lon="104.943769"/>
      <trkpt lat="51.864586" lon="104.944026"/>
      <trkpt lat="51.864719" lon="104.944305"/>
      <trkpt lat="51.864832" lon="104.945145"/>
      <trkpt lat="51.865057" lon="104.945863"/>
      <trkpt lat="51.864996" lon="104.945930"/>
      <trkpt lat="51.864841" lon="104.945711"/>
      <trkpt lat="51.864938" lon="104.946909"/>
      <trkpt lat="51.865083" lon="104.947078"/>
      <trkpt lat="51.865264" lon="104.947658"/>
      <trkpt lat="51.864678" lon="104.948181"/>
      <trkpt lat="51.864411" lon="104.949946"/>
      <trkpt lat="51.864159" lon="104.950178"/>
      <trkpt lat="51.863780" lon="104.950985"/>
      <trkpt lat="51.863921" lon="104.952435"/>
      <trkpt lat="51.863808" lon="104.953771"/>
      <trkpt lat="51.863908" lon="104.953937"/>
      <trkpt lat="51.864107" lon="104.954815"/>
      <trkpt lat="51.864475" lon="104.955632"/>
      <trkpt lat="51.864660" lon="104.957185"/>
      <trkpt lat="51.864593" lon="104.957734"/>
      <trkpt lat="51.864657" lon="104.958406"/>
      <trkpt lat="51.864585" lon="104.959135"/>
      <trkpt lat="51.864602" lon="104.960035"/>
      <trkpt lat="51.864961" lon="104.960435"/>
      <trkpt lat="51.865035" lon="104.960639"/>
      <trkpt lat="51.864997" lon="104.960840"/>
      <trkpt lat="51.865088" lon="104.961390"/>
      <trkpt lat="51.865299" lon="104.961664"/>
      <trkpt lat="51.865729" lon="104.962643"/>
      <trkpt lat="51.865749" lon="104.963201"/>
      <trkpt lat="51.865915" lon="104.963683"/>
      <trkpt lat="51.866266" lon="104.964555"/>
      <trkpt lat="51.866476" lon="104.964842"/>
      <trkpt lat="51.866657" lon="104.965499"/>
      <trkpt lat="51.866948" lon="104.966175"/>
      <trkpt lat="51.867250" lon="104.966513"/>
      <trkpt lat="51.867995" lon="104.967783"/>
      <trkpt lat="51.868010" lon="104.967928"/>
      <trkpt lat="51.868242" lon="104.968212"/>
      <trkpt lat="51.868797" lon="104.969738"/>
      <trkpt lat="51.869198" lon="104.970484"/>
      <trkpt lat="51.869372" lon="104.970642"/>
      <trkpt lat="51.869466" lon="104.971468"/>
      <trkpt lat="51.869582" lon="104.971592"/>
      <trkpt lat="51.869848" lon="104.972348"/>
      <trkpt lat="51.870108" lon="104.972640"/>
      <trkpt lat="51.869881" lon="104.972686"/>
      <trkpt lat="51.869853" lon="104.972831"/>
      <trkpt lat="51.870016" lon="104.974089"/>
      <trkpt lat="51.870054" lon="104.975172"/>
      <trkpt lat="51.870362" lon="104.976411"/>
      <trkpt lat="51.871075" lon="104.980096"/>
      <trkpt lat="51.870903" lon="104.980262"/>
      <trkpt lat="51.870311" lon="104.982971"/>
      <trkpt lat="51.870391" lon="104.983148"/>
      <trkpt lat="51.870303" lon="104.983161"/>
      <trkpt lat="51.870440" lon="104.984392"/>
      <trkpt lat="51.870637" lon="104.984827"/>
      <trkpt lat="51.870902" lon="104.986434"/>
      <trkpt lat="51.870989" lon="104.987569"/>
      <trkpt lat="51.870960" lon="104.988435"/>
      <trkpt lat="51.871159" lon="104.989418"/>
      <trkpt lat="51.871358" lon="104.989955"/>
      <trkpt lat="51.871727" lon="104.990579"/>
      <trkpt lat="51.872264" lon="104.990976"/>
      <trkpt lat="51.872264" lon="104.991470"/>
      <trkpt lat="51.872151" lon="104.991878"/>
      <trkpt lat="51.872376" lon="104.992886"/>
      <trkpt lat="51.872992" lon="104.994506"/>
      <trkpt lat="51.873516" lon="104.995429"/>
      <trkpt lat="51.873946" lon="104.997585"/>
      <trkpt lat="51.873953" lon="104.998143"/>
      <trkpt lat="51.873850" lon="104.998819"/>
      <trkpt lat="51.873940" lon="104.999924"/>
      <trkpt lat="51.874148" lon="105.000938"/>
      <trkpt lat="51.874354" lon="105.001319"/>
      <trkpt lat="51.874354" lon="105.002091"/>
      <trkpt lat="51.874652" lon="105.002892"/>
      <trkpt lat="51.875613" lon="105.003815"/>
      <trkpt lat="51.876351" lon="105.005001"/>
      <trkpt lat="51.876878" lon="105.005569"/>
      <trkpt lat="51.877368" lon="105.006304"/>
      <trkpt lat="51.878143" lon="105.007751"/>
      <trkpt lat="51.878669" lon="105.008320"/>
      <trkpt lat="51.878818" lon="105.009125"/>
      <trkpt lat="51.878788" lon="105.009291"/>
      <trkpt lat="51.879106" lon="105.010525"/>
      <trkpt lat="51.879620" lon="105.011683"/>
      <trkpt lat="51.880219" lon="105.012222"/>
      <trkpt lat="51.880295" lon="105.013563"/>
      <trkpt lat="51.880695" lon="105.014062"/>
      <trkpt lat="51.880748" lon="105.014609"/>
      <trkpt lat="51.880656" lon="105.014925"/>
      <trkpt lat="51.880894" lon="105.015435"/>
      <trkpt lat="51.881036" lon="105.016057"/>
      <trkpt lat="51.880825" lon="105.017474"/>
      <trkpt lat="51.880983" lon="105.018189"/>
      <trkpt lat="51.881372" lon="105.019219"/>
      <trkpt lat="51.881594" lon="105.019471"/>
      <trkpt lat="51.881884" lon="105.020328"/>
      <trkpt lat="51.882008" lon="105.020275"/>
      <trkpt lat="51.882240" lon="105.020613"/>
      <trkpt lat="51.883316" lon="105.021429"/>
      <trkpt lat="51.883932" lon="105.022382"/>
      <trkpt lat="51.884674" lon="105.023186"/>
      <trkpt lat="51.884866" lon="105.023572"/>
      <trkpt lat="51.885031" lon="105.024216"/>
      <trkpt lat="51.885819" lon="105.025364"/>
      <trkpt lat="51.886038" lon="105.025879"/>
      <trkpt lat="51.886098" lon="105.026598"/>
      <trkpt lat="51.886541" lon="105.026845"/>
      <trkpt lat="51.886468" lon="105.027639"/>
      <trkpt lat="51.886853" lon="105.028433"/>
      <trkpt lat="51.886939" lon="105.028980"/>
      <trkpt lat="51.887296" lon="105.029516"/>
      <trkpt lat="51.887217" lon="105.030299"/>
      <trkpt lat="51.887270" lon="105.030600"/>
      <trkpt lat="51.887753" lon="105.031866"/>
      <trkpt lat="51.888415" lon="105.032799"/>
      <trkpt lat="51.888475" lon="105.033014"/>
      <trkpt lat="51.888210" lon="105.033969"/>
      <trkpt lat="51.888386" lon="105.037069"/>
      <trkpt lat="51.888503" lon="105.037674"/>
      <trkpt lat="51.888773" lon="105.038046"/>
      <trkpt lat="51.889098" lon="105.038862"/>
      <trkpt lat="51.889674" lon="105.039892"/>
      <trkpt lat="51.890482" lon="105.041029"/>
      <trkpt lat="51.890834" lon="105.042097"/>
      <trkpt lat="51.891383" lon="105.043213"/>
      <trkpt lat="51.892052" lon="105.045165"/>
      <trkpt lat="51.893297" lon="105.047665"/>
      <trkpt lat="51.893648" lon="105.049575"/>
      <trkpt lat="51.894972" lon="105.052300"/>
      <trkpt lat="51.895323" lon="105.053255"/>
      <trkpt lat="51.895581" lon="105.054564"/>
      <trkpt lat="51.895759" lon="105.055045"/>
      <trkpt lat="51.896077" lon="105.055367"/>
      <trkpt lat="51.896613" lon="105.055689"/>
      <trkpt lat="51.896977" lon="105.056644"/>
      <trkpt lat="51.897500" lon="105.057427"/>
      <trkpt lat="51.898056" lon="105.058886"/>
      <trkpt lat="51.899208" lon="105.061322"/>
      <trkpt lat="51.899671" lon="105.062867"/>
      <trkpt lat="51.900074" lon="105.063792"/>
      <trkpt lat="51.900609" lon="105.064583"/>
      <trkpt lat="51.901703" lon="105.065626"/>
      <trkpt lat="51.902365" lon="105.066581"/>
      <trkpt lat="51.902994" lon="105.067804"/>
      <trkpt lat="51.903371" lon="105.068877"/>
      <trkpt lat="51.903417" lon="105.069499"/>
      <trkpt lat="51.903351" lon="105.072300"/>
      <trkpt lat="51.904106" lon="105.072418"/>
      <trkpt lat="51.904351" lon="105.072600"/>
      <trkpt lat="51.904503" lon="105.072954"/>
      <trkpt lat="51.904276" lon="105.074014"/>
      <trkpt lat="51.904315" lon="105.075302"/>
      <trkpt lat="51.904263" lon="105.076267"/>
      <trkpt lat="51.904037" lon="105.076589"/>
      <trkpt lat="51.904059" lon="105.077191"/>
      <trkpt lat="51.904171" lon="105.078541"/>
      <trkpt lat="51.904329" lon="105.079336"/>
      <trkpt lat="51.904368" lon="105.080259"/>
      <trkpt lat="51.904713" lon="105.082404"/>
      <trkpt lat="51.904739" lon="105.083069"/>
      <trkpt lat="51.904623" lon="105.083978"/>
      <trkpt lat="51.904805" lon="105.084507"/>
      <trkpt lat="51.905209" lon="105.087399"/>
      <trkpt lat="51.905302" lon="105.089458"/>
      <trkpt lat="51.905421" lon="105.090446"/>
      <trkpt lat="51.905819" lon="105.090660"/>
      <trkpt lat="51.905660" lon="105.091368"/>
      <trkpt lat="51.905805" lon="105.093278"/>
      <trkpt lat="51.905620" lon="105.094651"/>
      <trkpt lat="51.905382" lon="105.097859"/>
      <trkpt lat="51.905170" lon="105.098750"/>
      <trkpt lat="51.903659" lon="105.103371"/>
      <trkpt lat="51.903321" lon="105.103972"/>
      <trkpt lat="51.902916" lon="105.104225"/>
      <trkpt lat="51.901630" lon="105.106554"/>
      <trkpt lat="51.900839" lon="105.108257"/>
      <trkpt lat="51.900566" lon="105.109378"/>
      <trkpt lat="51.899378" lon="105.112568"/>
      <trkpt lat="51.899469" lon="105.113004"/>
      <trkpt lat="51.899138" lon="105.114238"/>
      <trkpt lat="51.899012" lon="105.115300"/>
      <trkpt lat="51.899416" lon="105.116619"/>
      <trkpt lat="51.899568" lon="105.117456"/>
      <trkpt lat="51.899628" lon="105.119377"/>
      <trkpt lat="51.899321" lon="105.121692"/>
      <trkpt lat="51.898841" lon="105.123406"/>
      <trkpt lat="51.898884" lon="105.124138"/>
      <trkpt lat="51.898964" lon="105.124492"/>
      <trkpt lat="51.899440" lon="105.124900"/>
      <trkpt lat="51.899864" lon="105.125500"/>
      <trkpt lat="51.900715" lon="105.125611"/>
      <trkpt lat="51.901132" lon="105.125858"/>
      <trkpt lat="51.901238" lon="105.126706"/>
      <trkpt lat="51.901370" lon="105.127156"/>
      <trkpt lat="51.901629" lon="105.127424"/>
      <trkpt lat="51.901490" lon="105.127607"/>
      <trkpt lat="51.900967" lon="105.127811"/>
      <trkpt lat="51.900755" lon="105.128079"/>
      <trkpt lat="51.900589" lon="105.128605"/>
      <trkpt lat="51.900477" lon="105.129045"/>
      <trkpt lat="51.900384" lon="105.130235"/>
      <trkpt lat="51.900166" lon="105.130858"/>
      <trkpt lat="51.900080" lon="105.133229"/>
      <trkpt lat="51.899689" lon="105.134827"/>
      <trkpt lat="51.900490" lon="105.134731"/>
      <trkpt lat="51.900750" lon="105.135290"/>
      <trkpt lat="51.900379" lon="105.135784"/>
      <trkpt lat="51.899823" lon="105.135955"/>
      <trkpt lat="51.899340" lon="105.136588"/>
      <trkpt lat="51.898618" lon="105.137060"/>
      <trkpt lat="51.898384" lon="105.137382"/>
      <trkpt lat="51.898463" lon="105.137383"/>
      <trkpt lat="51.898494" lon="105.138064"/>
      <trkpt lat="51.898635" lon="105.138640"/>
      <trkpt lat="51.898834" lon="105.139037"/>
      <trkpt lat="51.898947" lon="105.139777"/>
      <trkpt lat="51.899110" lon="105.139851"/>
      <trkpt lat="51.899363" lon="105.140590"/>
      <trkpt lat="51.899720" lon="105.140773"/>
      <trkpt lat="51.899826" lon="105.141020"/>
      <trkpt lat="51.899952" lon="105.140996"/>
      <trkpt lat="51.900102" lon="105.140535"/>
      <trkpt lat="51.900396" lon="105.140388"/>
      <trkpt lat="51.900703" lon="105.140717"/>
      <trkpt lat="51.900762" lon="105.140912"/>
      <trkpt lat="51.900719" lon="105.141306"/>
      <trkpt lat="51.900628" lon="105.141449"/>
      <trkpt lat="51.899951" lon="105.142048"/>
      <trkpt lat="51.899889" lon="105.143077"/>
      <trkpt lat="51.899942" lon="105.143475"/>
      <trkpt lat="51.899735" lon="105.143860"/>
      <trkpt lat="51.899913" lon="105.144021"/>
      <trkpt lat="51.899931" lon="105.144239"/>
      <trkpt lat="51.899724" lon="105.144775"/>
      <trkpt lat="51.899578" lon="105.145466"/>
      <trkpt lat="51.899651" lon="105.146263"/>
      <trkpt lat="51.900012" lon="105.147453"/>
      <trkpt lat="51.900235" lon="105.147689"/>
      <trkpt lat="51.900277" lon="105.148056"/>
      <trkpt lat="51.900050" lon="105.148428"/>
      <trkpt lat="51.899549" lon="105.148503"/>
      <trkpt lat="51.899425" lon="105.148666"/>
      <trkpt lat="51.899527" lon="105.150028"/>
      <trkpt lat="51.899785" lon="105.150836"/>
      <trkpt lat="51.900206" lon="105.154168"/>
      <trkpt lat="51.899962" lon="105.154581"/>
      <trkpt lat="51.898969" lon="105.155348"/>
      <trkpt lat="51.899121" lon="105.155810"/>
      <trkpt lat="51.899386" lon="105.156271"/>
      <trkpt lat="51.900127" lon="105.156485"/>
      <trkpt lat="51.900319" lon="105.156754"/>
      <trkpt lat="51.900337" lon="105.157275"/>
      <trkpt lat="51.900756" lon="105.157709"/>
      <trkpt lat="51.901147" lon="105.158621"/>
      <trkpt lat="51.901259" lon="105.159275"/>
      <trkpt lat="51.901345" lon="105.161077"/>
      <trkpt lat="51.901458" lon="105.161775"/>
      <trkpt lat="51.901637" lon="105.162107"/>
      <trkpt lat="51.902391" lon="105.163266"/>
      <trkpt lat="51.902796" lon="105.163668"/>
      <trkpt lat="51.903777" lon="105.163887"/>
      <trkpt lat="51.904294" lon="105.164209"/>
      <trkpt lat="51.904611" lon="105.164885"/>
      <trkpt lat="51.904843" lon="105.166001"/>
      <trkpt lat="51.905079" lon="105.166637"/>
      <trkpt lat="51.905995" lon="105.167610"/>
      <trkpt lat="51.907188" lon="105.169836"/>
      <trkpt lat="51.907618" lon="105.172389"/>
      <trkpt lat="51.907624" lon="105.172679"/>
      <trkpt lat="51.907492" lon="105.173226"/>
      <trkpt lat="51.907492" lon="105.173870"/>
      <trkpt lat="51.908008" lon="105.175608"/>
      <trkpt lat="51.908300" lon="105.177882"/>
      <trkpt lat="51.908617" lon="105.178580"/>
      <trkpt lat="51.908812" lon="105.179298"/>
      <trkpt lat="51.908931" lon="105.180124"/>
      <trkpt lat="51.909527" lon="105.181734"/>
      <trkpt lat="51.909706" lon="105.183343"/>
      <trkpt lat="51.909984" lon="105.184416"/>
      <trkpt lat="51.910288" lon="105.184759"/>
      <trkpt lat="51.910612" lon="105.185446"/>
      <trkpt lat="51.911102" lon="105.185821"/>
      <trkpt lat="51.911413" lon="105.186358"/>
      <trkpt lat="51.911757" lon="105.186723"/>
      <trkpt lat="51.912406" lon="105.187130"/>
      <trkpt lat="51.913663" lon="105.188482"/>
      <trkpt lat="51.914299" lon="105.189351"/>
      <trkpt lat="51.914802" lon="105.190295"/>
      <trkpt lat="51.915086" lon="105.191068"/>
      <trkpt lat="51.915740" lon="105.193949"/>
      <trkpt lat="51.916442" lon="105.197747"/>
      <trkpt lat="51.916733" lon="105.198820"/>
      <trkpt lat="51.916839" lon="105.200709"/>
      <trkpt lat="51.916720" lon="105.201438"/>
      <trkpt lat="51.916693" lon="105.202275"/>
      <trkpt lat="51.917011" lon="105.202833"/>
      <trkpt lat="51.916733" lon="105.203884"/>
      <trkpt lat="51.917011" lon="105.204936"/>
      <trkpt lat="51.917236" lon="105.206631"/>
      <trkpt lat="51.917619" lon="105.207854"/>
      <trkpt lat="51.917831" lon="105.208991"/>
      <trkpt lat="51.918122" lon="105.212296"/>
      <trkpt lat="51.918408" lon="105.213910"/>
      <trkpt lat="51.918329" lon="105.215498"/>
      <trkpt lat="51.917627" lon="105.220498"/>
      <trkpt lat="51.917574" lon="105.222407"/>
      <trkpt lat="51.917641" lon="105.223244"/>
      <trkpt lat="51.917958" lon="105.224274"/>
      <trkpt lat="51.918316" lon="105.224918"/>
      <trkpt lat="51.919838" lon="105.228523"/>
      <trkpt lat="51.920592" lon="105.229660"/>
      <trkpt lat="51.921212" lon="105.230820"/>
      <trkpt lat="51.921939" lon="105.233416"/>
      <trkpt lat="51.922045" lon="105.234532"/>
      <trkpt lat="51.922786" lon="105.237536"/>
      <trkpt lat="51.923474" lon="105.239574"/>
      <trkpt lat="51.924335" lon="105.240776"/>
      <trkpt lat="51.925314" lon="105.241870"/>
      <trkpt lat="51.926981" lon="105.244874"/>
      <trkpt lat="51.929324" lon="105.249790"/>
      <trkpt lat="51.929655" lon="105.250734"/>
      <trkpt lat="51.930118" lon="105.251399"/>
      <trkpt lat="51.930542" lon="105.251764"/>
      <trkpt lat="51.931170" lon="105.252751"/>
      <trkpt lat="51.932877" lon="105.255026"/>
      <trkpt lat="51.933366" lon="105.255487"/>
      <trkpt lat="51.933512" lon="105.255798"/>
      <trkpt lat="51.935444" lon="105.257193"/>
      <trkpt lat="51.935993" lon="105.257450"/>
      <trkpt lat="51.937355" lon="105.257794"/>
      <trkpt lat="51.941400" lon="105.258594"/>
      <trkpt lat="51.942391" lon="105.258588"/>
      <trkpt lat="51.947442" lon="105.259225"/>
      <trkpt lat="51.950140" lon="105.259397"/>
      <trkpt lat="51.952018" lon="105.260084"/>
      <trkpt lat="51.953393" lon="105.260942"/>
      <trkpt lat="51.955430" lon="105.261114"/>
      <trkpt lat="51.956382" lon="105.261457"/>
      <trkpt lat="51.958392" lon="105.262616"/>
      <trkpt lat="51.961539" lon="105.265491"/>
      <trkpt lat="51.965700" lon="105.268954"/>
      <trkpt lat="51.970327" lon="105.270670"/>
      <trkpt lat="51.972548" lon="105.272130"/>
      <trkpt lat="51.976698" lon="105.277537"/>
      <trkpt lat="51.978152" lon="105.280670"/>
      <trkpt lat="51.981483" lon="105.285433"/>
      <trkpt lat="51.982699" lon="105.287708"/>
      <trkpt lat="51.983862" lon="105.290712"/>
      <trkpt lat="51.984549" lon="105.294102"/>
      <trkpt lat="51.984893" lon="105.297922"/>
      <trkpt lat="51.985210" lon="105.300411"/>
      <trkpt lat="51.987298" lon="105.305089"/>
      <trkpt lat="51.987879" lon="105.311011"/>
      <trkpt lat="51.986743" lon="105.312255"/>
      <trkpt lat="51.986609" lon="105.313500"/>
      <trkpt lat="51.987116" lon="105.315526"/>
      <trkpt lat="51.987854" lon="105.316813"/>
      <trkpt lat="51.988313" lon="105.317991"/>
      <trkpt lat="51.988737" lon="105.319870"/>
      <trkpt lat="51.988841" lon="105.321385"/>
      <trkpt lat="51.989378" lon="105.322399"/>
      <trkpt lat="51.989760" lon="105.322934"/>
      <trkpt lat="51.989997" lon="105.323503"/>
      <trkpt lat="51.991790" lon="105.326804"/>
      <trkpt lat="51.995120" lon="105.331396"/>
      <trkpt lat="51.996177" lon="105.333241"/>
      <trkpt lat="51.996282" lon="105.333971"/>
      <trkpt lat="52.000246" lon="105.338992"/>
      <trkpt lat="52.001593" lon="105.341180"/>
      <trkpt lat="52.003179" lon="105.343412"/>
      <trkpt lat="52.004288" lon="105.346502"/>
      <trkpt lat="52.005794" lon="105.349806"/>
      <trkpt lat="52.007115" lon="105.352467"/>
      <trkpt lat="52.007934" lon="105.355257"/>
      <trkpt lat="52.008911" lon="105.359806"/>
      <trkpt lat="52.009893" lon="105.362624"/>
    </trkseg>
  </trk>
</gpx>